{
"type": "FeatureCollection",
"name": "schools.raw",
"features": [
{ "type": "Feature", "properties": { "name": "Scuola Elementare Statale \"Edmondo De Amicis\"" }, "geometry": { "type": "Point", "coordinates": [ 7.6731772, 45.0807211 ] } },
{ "type": "Feature", "properties": { "name": "Parato primary school" }, "geometry": { "type": "Point", "coordinates": [ 7.68255, 45.0412034 ] } },
{ "type": "Feature", "properties": { "name": "Scuola Primaria \"Anna Frank\"" }, "geometry": { "type": "Point", "coordinates": [ 7.7176973, 45.1865682 ] } },
{ "type": "Feature", "properties": { }, "geometry": { "type": "Point", "coordinates": [ 7.6552357, 45.0366209 ] } },
{ "type": "Feature", "properties": { }, "geometry": { "type": "Point", "coordinates": [ 7.6533495, 45.0047402 ] } },
{ "type": "Feature", "properties": { "name": "Scuola Elementare \"Antonio Ambrosini\"" }, "geometry": { "type": "Point", "coordinates": [ 7.7122681, 45.1267055 ] } },
{ "type": "Feature", "properties": { }, "geometry": { "type": "Point", "coordinates": [ 7.5410406, 45.0085162 ] } },
{ "type": "Feature", "properties": { }, "geometry": { "type": "Point", "coordinates": [ 7.5411082, 45.0081402 ] } },
{ "type": "Feature", "properties": { }, "geometry": { "type": "Point", "coordinates": [ 7.6614273, 45.0647531 ] } },
{ "type": "Feature", "properties": { }, "geometry": { "type": "Point", "coordinates": [ 7.6628879, 45.0631741 ] } },
{ "type": "Feature", "properties": { "name": "Politecnico di Torino – Ingresso principale" }, "geometry": { "type": "Point", "coordinates": [ 7.6623476, 45.0624606 ] } },
{ "type": "Feature", "properties": { "name": "Politecnico di Torino – Sede Lingotto" }, "geometry": { "type": "Point", "coordinates": [ 7.6675409, 45.0342752 ] } },
{ "type": "Feature", "properties": { "name": "Asilo Nido" }, "geometry": { "type": "Point", "coordinates": [ 7.5308469, 45.0056339 ] } },
{ "type": "Feature", "properties": { "name": "Liceo Scientifico \"Piero Gobetti\"" }, "geometry": { "type": "Point", "coordinates": [ 7.692529, 45.0650915 ] } },
{ "type": "Feature", "properties": { }, "geometry": { "type": "Point", "coordinates": [ 7.6961511, 45.0669134 ] } },
{ "type": "Feature", "properties": { "name": "Bay" }, "geometry": { "type": "Point", "coordinates": [ 7.6818556, 45.0579021 ] } },
{ "type": "Feature", "properties": { "name": "Scuola elementare \"Anna Frank\"" }, "geometry": { "type": "Point", "coordinates": [ 7.5765803, 45.130354 ] } },
{ "type": "Feature", "properties": { "name": "Scuola media \"Don Milani\"" }, "geometry": { "type": "Point", "coordinates": [ 7.5759621, 45.1301815 ] } },
{ "type": "Feature", "properties": { }, "geometry": { "type": "Point", "coordinates": [ 7.6420202, 45.0678053 ] } },
{ "type": "Feature", "properties": { "name": "Pippi Calze Lunghe" }, "geometry": { "type": "Point", "coordinates": [ 7.7157522, 45.0675989 ] } },
{ "type": "Feature", "properties": { }, "geometry": { "type": "Point", "coordinates": [ 7.6559837, 45.0636459 ] } },
{ "type": "Feature", "properties": { }, "geometry": { "type": "Point", "coordinates": [ 7.655965, 45.0637243 ] } },
{ "type": "Feature", "properties": { }, "geometry": { "type": "Point", "coordinates": [ 7.5887688, 45.0662168 ] } },
{ "type": "Feature", "properties": { }, "geometry": { "type": "Point", "coordinates": [ 7.5887827, 45.0662999 ] } },
{ "type": "Feature", "properties": { }, "geometry": { "type": "Point", "coordinates": [ 7.5889135, 45.0670265 ] } },
{ "type": "Feature", "properties": { }, "geometry": { "type": "Point", "coordinates": [ 7.65978, 45.0646951 ] } },
{ "type": "Feature", "properties": { }, "geometry": { "type": "Point", "coordinates": [ 7.6569694, 45.0653045 ] } },
{ "type": "Feature", "properties": { }, "geometry": { "type": "Point", "coordinates": [ 7.632226, 45.1330268 ] } },
{ "type": "Feature", "properties": { }, "geometry": { "type": "Point", "coordinates": [ 7.6590445, 45.0636453 ] } },
{ "type": "Feature", "properties": { }, "geometry": { "type": "Point", "coordinates": [ 7.6602923, 45.0656026 ] } },
{ "type": "Feature", "properties": { }, "geometry": { "type": "Point", "coordinates": [ 7.6272639, 45.0658701 ] } },
{ "type": "Feature", "properties": { }, "geometry": { "type": "Point", "coordinates": [ 7.6278259, 45.0649494 ] } },
{ "type": "Feature", "properties": { }, "geometry": { "type": "Point", "coordinates": [ 7.6283654, 45.0656007 ] } },
{ "type": "Feature", "properties": { "name": "Asilo Nido Beatrice Allende" }, "geometry": { "type": "Point", "coordinates": [ 7.5811507, 45.0652109 ] } },
{ "type": "Feature", "properties": { }, "geometry": { "type": "Point", "coordinates": [ 7.6386294, 45.0399163 ] } },
{ "type": "Feature", "properties": { }, "geometry": { "type": "Point", "coordinates": [ 7.7002357, 45.0736494 ] } },
{ "type": "Feature", "properties": { }, "geometry": { "type": "Point", "coordinates": [ 7.662126, 45.0621508 ] } },
{ "type": "Feature", "properties": { }, "geometry": { "type": "Point", "coordinates": [ 7.6592844, 45.062375 ] } },
{ "type": "Feature", "properties": { }, "geometry": { "type": "Point", "coordinates": [ 7.6625631, 45.0627589 ] } },
{ "type": "Feature", "properties": { }, "geometry": { "type": "Point", "coordinates": [ 7.6821921, 45.0547569 ] } },
{ "type": "Feature", "properties": { }, "geometry": { "type": "Point", "coordinates": [ 7.682469, 45.0551926 ] } },
{ "type": "Feature", "properties": { }, "geometry": { "type": "Point", "coordinates": [ 7.6815594, 45.055481 ] } },
{ "type": "Feature", "properties": { }, "geometry": { "type": "Point", "coordinates": [ 7.6569433, 45.0652679 ] } },
{ "type": "Feature", "properties": { }, "geometry": { "type": "Point", "coordinates": [ 7.6569084, 45.0652181 ] } },
{ "type": "Feature", "properties": { }, "geometry": { "type": "Point", "coordinates": [ 7.6812816, 45.0550441 ] } },
{ "type": "Feature", "properties": { "name": "Università di Torino - Dipartimento di Studi Politici" }, "geometry": { "type": "Point", "coordinates": [ 7.6899977, 45.0651023 ] } },
{ "type": "Feature", "properties": { "name": "Università di Torino - Mineralogia Petrografia Geochimica" }, "geometry": { "type": "Point", "coordinates": [ 7.6887448, 45.0636236 ] } },
{ "type": "Feature", "properties": { "name": "Università di Torino - Rettorato" }, "geometry": { "type": "Point", "coordinates": [ 7.6891162, 45.0693441 ] } },
{ "type": "Feature", "properties": { }, "geometry": { "type": "Point", "coordinates": [ 7.6863279, 45.0755877 ] } },
{ "type": "Feature", "properties": { "name": "Scuola Guida Elite" }, "geometry": { "type": "Point", "coordinates": [ 7.6234727, 45.0639308 ] } },
{ "type": "Feature", "properties": { }, "geometry": { "type": "Point", "coordinates": [ 7.6858981, 45.068108 ] } },
{ "type": "Feature", "properties": { "name": "Università delle Tre Età" }, "geometry": { "type": "Point", "coordinates": [ 7.682806, 44.9996306 ] } },
{ "type": "Feature", "properties": { }, "geometry": { "type": "Point", "coordinates": [ 7.6767783, 45.0653433 ] } },
{ "type": "Feature", "properties": { }, "geometry": { "type": "Point", "coordinates": [ 7.676673, 45.0655722 ] } },
{ "type": "Feature", "properties": { "name": "Scuola Elementare Statale \"G. Carducci\"" }, "geometry": { "type": "Point", "coordinates": [ 7.677361, 45.065608 ] } },
{ "type": "Feature", "properties": { "name": "Scuola Materna Statale" }, "geometry": { "type": "Point", "coordinates": [ 7.6771768, 45.0656681 ] } },
{ "type": "Feature", "properties": { "name": "Scuola Media Statale \"A. Meucci\"" }, "geometry": { "type": "Point", "coordinates": [ 7.6772895, 45.0656268 ] } },
{ "type": "Feature", "properties": { }, "geometry": { "type": "Point", "coordinates": [ 7.6607692, 45.0644921 ] } },
{ "type": "Feature", "properties": { "name": "Biblioteca Shahrazàd" }, "geometry": { "type": "Point", "coordinates": [ 7.6813453, 45.055317 ] } },
{ "type": "Feature", "properties": { }, "geometry": { "type": "Point", "coordinates": [ 7.682583, 45.0550933 ] } },
{ "type": "Feature", "properties": { }, "geometry": { "type": "Point", "coordinates": [ 7.6347221, 45.0421286 ] } },
{ "type": "Feature", "properties": { "name": "Accademia Albertina" }, "geometry": { "type": "Point", "coordinates": [ 7.6897297, 45.0675807 ] } },
{ "type": "Feature", "properties": { "name": "Casa nel bosco" }, "geometry": { "type": "Point", "coordinates": [ 7.8198509, 45.0108786 ] } },
{ "type": "Feature", "properties": { }, "geometry": { "type": "Point", "coordinates": [ 7.6419335, 45.0530638 ] } },
{ "type": "Feature", "properties": { }, "geometry": { "type": "Point", "coordinates": [ 7.6435751, 45.0534093 ] } },
{ "type": "Feature", "properties": { }, "geometry": { "type": "Point", "coordinates": [ 7.642227, 45.0520736 ] } },
{ "type": "Feature", "properties": { }, "geometry": { "type": "Point", "coordinates": [ 7.6682474, 45.1024117 ] } },
{ "type": "Feature", "properties": { "name": "Istituto Comprensivo Statale \"Sibilla Aleramo\"" }, "geometry": { "type": "Point", "coordinates": [ 7.6683333, 45.1025726 ] } },
{ "type": "Feature", "properties": { }, "geometry": { "type": "Point", "coordinates": [ 7.6925729, 45.0986963 ] } },
{ "type": "Feature", "properties": { "name": "Segreteria Studenti MFN" }, "geometry": { "type": "Point", "coordinates": [ 7.6888859, 45.0656773 ] } },
{ "type": "Feature", "properties": { "name": "Dipartimento di Scienze della Vita e Biologia dei Sistemi" }, "geometry": { "type": "Point", "coordinates": [ 7.6882857, 45.0652865 ] } },
{ "type": "Feature", "properties": { }, "geometry": { "type": "Point", "coordinates": [ 7.6481052, 45.0479487 ] } },
{ "type": "Feature", "properties": { }, "geometry": { "type": "Point", "coordinates": [ 7.6421789, 45.0453488 ] } },
{ "type": "Feature", "properties": { }, "geometry": { "type": "Point", "coordinates": [ 7.6419371, 45.0454315 ] } },
{ "type": "Feature", "properties": { "name": "Elementare «Carlo Collodi» - succursale «Gianni Rodari»" }, "geometry": { "type": "Point", "coordinates": [ 7.6463685, 45.0204266 ] } },
{ "type": "Feature", "properties": { "name": "Istituto d'istruzione secondaria statale di I grado «Piero Calamandrei»" }, "geometry": { "type": "Point", "coordinates": [ 7.646744, 45.0212684 ] } },
{ "type": "Feature", "properties": { "name": "Scuola materna statale" }, "geometry": { "type": "Point", "coordinates": [ 7.669092, 45.03905 ] } },
{ "type": "Feature", "properties": { }, "geometry": { "type": "Point", "coordinates": [ 7.6967601, 45.091032 ] } },
{ "type": "Feature", "properties": { }, "geometry": { "type": "Point", "coordinates": [ 7.6958036, 45.0912382 ] } },
{ "type": "Feature", "properties": { }, "geometry": { "type": "Point", "coordinates": [ 7.6910907, 45.0980695 ] } },
{ "type": "Feature", "properties": { }, "geometry": { "type": "Point", "coordinates": [ 7.6304268, 45.0349837 ] } },
{ "type": "Feature", "properties": { }, "geometry": { "type": "Point", "coordinates": [ 7.6310508, 45.0348242 ] } },
{ "type": "Feature", "properties": { "name": "Dipartimento di Scienze della Vita e Biologia dei Sistemi" }, "geometry": { "type": "Point", "coordinates": [ 7.6870107, 45.0550943 ] } },
{ "type": "Feature", "properties": { }, "geometry": { "type": "Point", "coordinates": [ 7.6757752, 45.0649496 ] } },
{ "type": "Feature", "properties": { }, "geometry": { "type": "Point", "coordinates": [ 7.7079905, 45.0941864 ] } },
{ "type": "Feature", "properties": { }, "geometry": { "type": "Point", "coordinates": [ 7.7103421, 45.0937745 ] } },
{ "type": "Feature", "properties": { }, "geometry": { "type": "Point", "coordinates": [ 7.6980753, 45.0837476 ] } },
{ "type": "Feature", "properties": { }, "geometry": { "type": "Point", "coordinates": [ 7.6602688, 45.0655712 ] } },
{ "type": "Feature", "properties": { }, "geometry": { "type": "Point", "coordinates": [ 7.6596817, 45.06455 ] } },
{ "type": "Feature", "properties": { }, "geometry": { "type": "Point", "coordinates": [ 7.6563994, 45.0646604 ] } },
{ "type": "Feature", "properties": { }, "geometry": { "type": "Point", "coordinates": [ 7.6558864, 45.0637636 ] } },
{ "type": "Feature", "properties": { }, "geometry": { "type": "Point", "coordinates": [ 7.6560021, 45.0640931 ] } },
{ "type": "Feature", "properties": { }, "geometry": { "type": "Point", "coordinates": [ 7.6559796, 45.0636639 ] } },
{ "type": "Feature", "properties": { }, "geometry": { "type": "Point", "coordinates": [ 7.6595787, 45.064408 ] } },
{ "type": "Feature", "properties": { }, "geometry": { "type": "Point", "coordinates": [ 7.6936912, 45.0677905 ] } },
{ "type": "Feature", "properties": { }, "geometry": { "type": "Point", "coordinates": [ 7.6933358, 45.067308 ] } },
{ "type": "Feature", "properties": { }, "geometry": { "type": "Point", "coordinates": [ 7.6941289, 45.067977 ] } },
{ "type": "Feature", "properties": { }, "geometry": { "type": "Point", "coordinates": [ 7.6963957, 45.0663145 ] } },
{ "type": "Feature", "properties": { }, "geometry": { "type": "Point", "coordinates": [ 7.5419456, 45.1087333 ] } },
{ "type": "Feature", "properties": { "name": "Politecnico di Torino – Ingresso corso Castelfidardo" }, "geometry": { "type": "Point", "coordinates": [ 7.6599464, 45.0632995 ] } },
{ "type": "Feature", "properties": { }, "geometry": { "type": "Point", "coordinates": [ 7.6878431, 45.029718 ] } },
{ "type": "Feature", "properties": { "name": "CPIA 4 - Centro Provinciale Istruzione Adulti Settimo Torinese" }, "geometry": { "type": "Point", "coordinates": [ 7.7735635, 45.1396043 ] } },
{ "type": "Feature", "properties": { }, "geometry": { "type": "Point", "coordinates": [ 7.7565375, 45.1070114 ] } },
{ "type": "Feature", "properties": { }, "geometry": { "type": "Point", "coordinates": [ 7.6877002, 45.0300291 ] } },
{ "type": "Feature", "properties": { }, "geometry": { "type": "Point", "coordinates": [ 7.7556876, 45.1067069 ] } },
{ "type": "Feature", "properties": { }, "geometry": { "type": "Point", "coordinates": [ 7.7572779, 45.102794 ] } },
{ "type": "Feature", "properties": { }, "geometry": { "type": "Point", "coordinates": [ 7.7578055, 45.1027798 ] } },
{ "type": "Feature", "properties": { }, "geometry": { "type": "Point", "coordinates": [ 7.7588063, 45.1019055 ] } },
{ "type": "Feature", "properties": { }, "geometry": { "type": "Point", "coordinates": [ 7.6877551, 45.0299095 ] } },
{ "type": "Feature", "properties": { }, "geometry": { "type": "Point", "coordinates": [ 7.5505562, 45.0106272 ] } },
{ "type": "Feature", "properties": { }, "geometry": { "type": "Point", "coordinates": [ 7.6456419, 45.0452273 ] } },
{ "type": "Feature", "properties": { "name": "Scuola Elementare di Stato A. Toscanini" }, "geometry": { "type": "Point", "coordinates": [ 7.6338666, 45.0662211 ] } },
{ "type": "Feature", "properties": { }, "geometry": { "type": "Point", "coordinates": [ 7.6413293, 45.0406377 ] } },
{ "type": "Feature", "properties": { }, "geometry": { "type": "Point", "coordinates": [ 7.5349924, 45.0702949 ] } },
{ "type": "Feature", "properties": { }, "geometry": { "type": "Point", "coordinates": [ 7.6947643, 45.0763167 ] } },
{ "type": "Feature", "properties": { }, "geometry": { "type": "Point", "coordinates": [ 7.6944924, 45.0770736 ] } },
{ "type": "Feature", "properties": { }, "geometry": { "type": "Point", "coordinates": [ 7.6971735, 45.0839792 ] } },
{ "type": "Feature", "properties": { "name": "Il Nido delle Coccinelle - Nido/Materna" }, "geometry": { "type": "Point", "coordinates": [ 7.6206372, 45.0114032 ] } },
{ "type": "Feature", "properties": { }, "geometry": { "type": "Point", "coordinates": [ 7.634546, 45.0012425 ] } },
{ "type": "Feature", "properties": { }, "geometry": { "type": "Point", "coordinates": [ 7.6458967, 45.0200122 ] } },
{ "type": "Feature", "properties": { }, "geometry": { "type": "Point", "coordinates": [ 7.6514641, 45.0104229 ] } },
{ "type": "Feature", "properties": { }, "geometry": { "type": "Point", "coordinates": [ 7.6514105, 45.0101944 ] } },
{ "type": "Feature", "properties": { "name": "Scuola Primaria \"Ludovico Antonio Muratori\"" }, "geometry": { "type": "Point", "coordinates": [ 7.7052567, 45.0719274 ] } },
{ "type": "Feature", "properties": { "name": "Scuola Internazionale europea statale Altiero Spinelli" }, "geometry": { "type": "Point", "coordinates": [ 7.7065815, 45.0725436 ] } },
{ "type": "Feature", "properties": { "name": "Laboratorio Musicale Il Trillo" }, "geometry": { "type": "Point", "coordinates": [ 7.7056542, 45.0725076 ] } },
{ "type": "Feature", "properties": { "name": "Istituto Madre Cabrini" }, "geometry": { "type": "Point", "coordinates": [ 7.6946646, 45.0706303 ] } },
{ "type": "Feature", "properties": { "name": "Liceo Scientifico Gobetti Segrè" }, "geometry": { "type": "Point", "coordinates": [ 7.7002595, 45.0709316 ] } },
{ "type": "Feature", "properties": { "name": "Liceo Classico Statale Gioberti" }, "geometry": { "type": "Point", "coordinates": [ 7.7004982, 45.0706891 ] } },
{ "type": "Feature", "properties": { }, "geometry": { "type": "Point", "coordinates": [ 7.6471346, 45.0206134 ] } },
{ "type": "Feature", "properties": { }, "geometry": { "type": "Point", "coordinates": [ 7.6504764, 45.0104939 ] } },
{ "type": "Feature", "properties": { }, "geometry": { "type": "Point", "coordinates": [ 7.6554217, 45.0157589 ] } },
{ "type": "Feature", "properties": { "name": "Aule del dipartimento di psicologia" }, "geometry": { "type": "Point", "coordinates": [ 7.6932774, 45.0714463 ] } },
{ "type": "Feature", "properties": { }, "geometry": { "type": "Point", "coordinates": [ 7.6470601, 45.0204961 ] } },
{ "type": "Feature", "properties": { }, "geometry": { "type": "Point", "coordinates": [ 7.6469159, 45.0202692 ] } },
{ "type": "Feature", "properties": { }, "geometry": { "type": "Point", "coordinates": [ 7.646729, 45.0199749 ] } },
{ "type": "Feature", "properties": { "name": "Accademia di medicina" }, "geometry": { "type": "Point", "coordinates": [ 7.6895223, 45.068419 ] } },
{ "type": "Feature", "properties": { "name": "Openlab" }, "geometry": { "type": "Point", "coordinates": [ 7.5290574, 45.1021692 ] } },
{ "type": "Feature", "properties": { }, "geometry": { "type": "Point", "coordinates": [ 7.657222, 45.065832 ] } },
{ "type": "Feature", "properties": { }, "geometry": { "type": "Point", "coordinates": [ 7.6297026, 45.012004 ] } },
{ "type": "Feature", "properties": { }, "geometry": { "type": "Point", "coordinates": [ 7.6455259, 45.0206694 ] } },
{ "type": "Feature", "properties": { }, "geometry": { "type": "Point", "coordinates": [ 7.6447074, 45.0205043 ] } },
{ "type": "Feature", "properties": { }, "geometry": { "type": "Point", "coordinates": [ 7.6449104, 45.0208347 ] } },
{ "type": "Feature", "properties": { }, "geometry": { "type": "Point", "coordinates": [ 7.644591, 45.0203148 ] } },
{ "type": "Feature", "properties": { }, "geometry": { "type": "Point", "coordinates": [ 7.6879783, 45.0296592 ] } },
{ "type": "Feature", "properties": { }, "geometry": { "type": "Point", "coordinates": [ 7.6533247, 45.0262329 ] } },
{ "type": "Feature", "properties": { }, "geometry": { "type": "Point", "coordinates": [ 7.6527465, 45.0253885 ] } },
{ "type": "Feature", "properties": { }, "geometry": { "type": "Point", "coordinates": [ 7.6529126, 45.0257141 ] } },
{ "type": "Feature", "properties": { }, "geometry": { "type": "Point", "coordinates": [ 7.6410603, 45.0236131 ] } },
{ "type": "Feature", "properties": { }, "geometry": { "type": "Point", "coordinates": [ 7.6408668, 45.0227739 ] } },
{ "type": "Feature", "properties": { }, "geometry": { "type": "Point", "coordinates": [ 7.6361839, 45.0171376 ] } },
{ "type": "Feature", "properties": { }, "geometry": { "type": "Point", "coordinates": [ 7.6457784, 45.0210558 ] } },
{ "type": "Feature", "properties": { }, "geometry": { "type": "Point", "coordinates": [ 7.6160626, 45.0738125 ] } },
{ "type": "Feature", "properties": { }, "geometry": { "type": "Point", "coordinates": [ 7.6737802, 45.073039 ] } },
{ "type": "Feature", "properties": { }, "geometry": { "type": "Point", "coordinates": [ 7.6731659, 45.0732978 ] } },
{ "type": "Feature", "properties": { "name": "Scuola dell'Infanzia Borgo Crocetta" }, "geometry": { "type": "Point", "coordinates": [ 7.6595253, 45.0585392 ] } },
{ "type": "Feature", "properties": { }, "geometry": { "type": "Point", "coordinates": [ 7.6590737, 45.0792152 ] } },
{ "type": "Feature", "properties": { }, "geometry": { "type": "Point", "coordinates": [ 7.6506561, 45.0105971 ] } },
{ "type": "Feature", "properties": { }, "geometry": { "type": "Point", "coordinates": [ 7.5165998, 45.0265564 ] } },
{ "type": "Feature", "properties": { }, "geometry": { "type": "Point", "coordinates": [ 7.5179017, 45.0262385 ] } },
{ "type": "Feature", "properties": { }, "geometry": { "type": "Point", "coordinates": [ 7.6607277, 45.080653 ] } },
{ "type": "Feature", "properties": { }, "geometry": { "type": "Point", "coordinates": [ 7.7383448, 45.0771986 ] } },
{ "type": "Feature", "properties": { }, "geometry": { "type": "Point", "coordinates": [ 7.7382492, 45.0766429 ] } },
{ "type": "Feature", "properties": { "name": "Scuola Secondaria di primo grado \"Don Milani\"" }, "geometry": { "type": "Point", "coordinates": [ 7.5271346, 45.0309579 ] } },
{ "type": "Feature", "properties": { }, "geometry": { "type": "Point", "coordinates": [ 7.7267152, 45.0997651 ] } },
{ "type": "Feature", "properties": { }, "geometry": { "type": "Point", "coordinates": [ 7.7269719, 45.0997971 ] } },
{ "type": "Feature", "properties": { }, "geometry": { "type": "Point", "coordinates": [ 7.6306948, 45.0192053 ] } },
{ "type": "Feature", "properties": { }, "geometry": { "type": "Point", "coordinates": [ 7.6596049, 45.0815501 ] } },
{ "type": "Feature", "properties": { }, "geometry": { "type": "Point", "coordinates": [ 7.6595067, 45.0815859 ] } },
{ "type": "Feature", "properties": { }, "geometry": { "type": "Point", "coordinates": [ 7.6790016, 45.1048472 ] } },
{ "type": "Feature", "properties": { }, "geometry": { "type": "Point", "coordinates": [ 7.637997, 45.0462899 ] } },
{ "type": "Feature", "properties": { }, "geometry": { "type": "Point", "coordinates": [ 7.6418354, 45.044927 ] } },
{ "type": "Feature", "properties": { }, "geometry": { "type": "Point", "coordinates": [ 7.6425229, 45.0515931 ] } },
{ "type": "Feature", "properties": { }, "geometry": { "type": "Point", "coordinates": [ 7.5521329, 45.1036717 ] } },
{ "type": "Feature", "properties": { }, "geometry": { "type": "Point", "coordinates": [ 7.6934884, 45.0552629 ] } },
{ "type": "Feature", "properties": { }, "geometry": { "type": "Point", "coordinates": [ 7.6922275, 45.0557717 ] } },
{ "type": "Feature", "properties": { }, "geometry": { "type": "Point", "coordinates": [ 7.6625181, 45.0090104 ] } },
{ "type": "Feature", "properties": { }, "geometry": { "type": "Point", "coordinates": [ 7.6625506, 45.0083246 ] } },
{ "type": "Feature", "properties": { }, "geometry": { "type": "Point", "coordinates": [ 7.6628476, 45.0124515 ] } },
{ "type": "Feature", "properties": { }, "geometry": { "type": "Point", "coordinates": [ 7.6395245, 45.1773875 ] } },
{ "type": "Feature", "properties": { }, "geometry": { "type": "Point", "coordinates": [ 7.6573879, 45.0755917 ] } },
{ "type": "Feature", "properties": { }, "geometry": { "type": "Point", "coordinates": [ 7.6495081, 45.0135609 ] } },
{ "type": "Feature", "properties": { }, "geometry": { "type": "Point", "coordinates": [ 7.649479, 45.0145086 ] } },
{ "type": "Feature", "properties": { }, "geometry": { "type": "Point", "coordinates": [ 7.7783344, 45.1981985 ] } },
{ "type": "Feature", "properties": { "name": "Scuola Primaria \"Guglielmo da Volpiano\"" }, "geometry": { "type": "Point", "coordinates": [ 7.781281, 45.1993144 ] } },
{ "type": "Feature", "properties": { "name": "Scuola dell'Infanzia \"Arcobaleno\"" }, "geometry": { "type": "Point", "coordinates": [ 7.7813631, 45.1989183 ] } },
{ "type": "Feature", "properties": { "name": "Scuola secondaria di primo grado \"Dante Alighieri\"" }, "geometry": { "type": "Point", "coordinates": [ 7.770501, 45.1999784 ] } },
{ "type": "Feature", "properties": { }, "geometry": { "type": "Point", "coordinates": [ 7.7139589, 45.1777131 ] } },
{ "type": "Feature", "properties": { "name": "Scuola Infanzia Comunale \"Malta\" e nido d'infanzia \"Il canguro\"" }, "geometry": { "type": "Point", "coordinates": [ 7.6485085, 45.0599808 ] } },
{ "type": "Feature", "properties": { "name": "Assocam - Scuola Camerana" }, "geometry": { "type": "Point", "coordinates": [ 7.6540389, 45.0595099 ] } },
{ "type": "Feature", "properties": { "name": "Istituto Tecnico Statale per Geometri \"Alvar Aalto\"" }, "geometry": { "type": "Point", "coordinates": [ 7.6546479, 45.0594367 ] } },
{ "type": "Feature", "properties": { "name": "Scuola per l'infanzia \"Braccini\"" }, "geometry": { "type": "Point", "coordinates": [ 7.6493752, 45.0598525 ] } },
{ "type": "Feature", "properties": { }, "geometry": { "type": "Point", "coordinates": [ 7.7115338, 45.1822247 ] } },
{ "type": "Feature", "properties": { "name": "Scuola Primaria \"Gianni Rodari\"" }, "geometry": { "type": "Point", "coordinates": [ 7.5373866, 45.1382369 ] } },
{ "type": "Feature", "properties": { "name": "Scuola per l'Infanzia \"Federico Malvano\"" }, "geometry": { "type": "Point", "coordinates": [ 7.5381146, 45.1378234 ] } },
{ "type": "Feature", "properties": { "name": "Pedibus Scuola Matteotti - Punto di ritrovo" }, "geometry": { "type": "Point", "coordinates": [ 7.5328851, 45.0939462 ] } },
{ "type": "Feature", "properties": { }, "geometry": { "type": "Point", "coordinates": [ 7.5204271, 45.0932181 ] } },
{ "type": "Feature", "properties": { }, "geometry": { "type": "Point", "coordinates": [ 7.529291, 45.0992099 ] } },
{ "type": "Feature", "properties": { }, "geometry": { "type": "Point", "coordinates": [ 7.527927, 45.1012681 ] } },
{ "type": "Feature", "properties": { }, "geometry": { "type": "Point", "coordinates": [ 7.5339575, 45.094832 ] } },
{ "type": "Feature", "properties": { }, "geometry": { "type": "Point", "coordinates": [ 7.5313139, 45.06727 ] } },
{ "type": "Feature", "properties": { }, "geometry": { "type": "Point", "coordinates": [ 7.5187803, 45.0274563 ] } },
{ "type": "Feature", "properties": { }, "geometry": { "type": "Point", "coordinates": [ 7.54364, 45.0091043 ] } },
{ "type": "Feature", "properties": { }, "geometry": { "type": "Point", "coordinates": [ 7.6518271, 45.1546517 ] } },
{ "type": "Feature", "properties": { }, "geometry": { "type": "Point", "coordinates": [ 7.657307, 45.1543914 ] } },
{ "type": "Feature", "properties": { }, "geometry": { "type": "Point", "coordinates": [ 7.6571785, 45.1535409 ] } },
{ "type": "Feature", "properties": { }, "geometry": { "type": "Point", "coordinates": [ 7.6258469, 45.1190911 ] } },
{ "type": "Feature", "properties": { }, "geometry": { "type": "Point", "coordinates": [ 7.6351911, 45.1259825 ] } },
{ "type": "Feature", "properties": { }, "geometry": { "type": "Point", "coordinates": [ 7.6269136, 45.1277143 ] } },
{ "type": "Feature", "properties": { "name": "Scuola Primaria \"Romero\"" }, "geometry": { "type": "Point", "coordinates": [ 7.6310071, 45.1225822 ] } },
{ "type": "Feature", "properties": { "name": "Gianni Rodari" }, "geometry": { "type": "Point", "coordinates": [ 7.6316906, 45.1224074 ] } },
{ "type": "Feature", "properties": { }, "geometry": { "type": "Point", "coordinates": [ 7.7579028, 45.1356287 ] } },
{ "type": "Feature", "properties": { }, "geometry": { "type": "Point", "coordinates": [ 7.757545, 45.13746 ] } },
{ "type": "Feature", "properties": { }, "geometry": { "type": "Point", "coordinates": [ 7.7586292, 45.1405556 ] } },
{ "type": "Feature", "properties": { }, "geometry": { "type": "Point", "coordinates": [ 7.7712242, 45.14833 ] } },
{ "type": "Feature", "properties": { }, "geometry": { "type": "Point", "coordinates": [ 7.775457, 45.1465234 ] } },
{ "type": "Feature", "properties": { }, "geometry": { "type": "Point", "coordinates": [ 7.7771124, 45.1439425 ] } },
{ "type": "Feature", "properties": { }, "geometry": { "type": "Point", "coordinates": [ 7.7681447, 45.1328064 ] } },
{ "type": "Feature", "properties": { }, "geometry": { "type": "Point", "coordinates": [ 7.769322, 45.1328813 ] } },
{ "type": "Feature", "properties": { }, "geometry": { "type": "Point", "coordinates": [ 7.7679256, 45.1343449 ] } },
{ "type": "Feature", "properties": { }, "geometry": { "type": "Point", "coordinates": [ 7.660188, 45.058153 ] } },
{ "type": "Feature", "properties": { }, "geometry": { "type": "Point", "coordinates": [ 7.5212694, 45.0768179 ] } },
{ "type": "Feature", "properties": { "name": "Scuola dell'Infanzia \"Casa del Sole\"" }, "geometry": { "type": "Point", "coordinates": [ 7.5223226, 45.0772794 ] } },
{ "type": "Feature", "properties": { }, "geometry": { "type": "Point", "coordinates": [ 7.5248797, 45.0732585 ] } },
{ "type": "Feature", "properties": { "name": "International Training Centre of the International Labour Organization" }, "geometry": { "type": "Point", "coordinates": [ 7.6708228, 45.0213037 ] } },
{ "type": "Feature", "properties": { }, "geometry": { "type": "Point", "coordinates": [ 7.682075, 45.0406552 ] } },
{ "type": "Feature", "properties": { }, "geometry": { "type": "Point", "coordinates": [ 7.6432204, 45.081052 ] } },
{ "type": "Feature", "properties": { }, "geometry": { "type": "Point", "coordinates": [ 7.6437127, 45.0802503 ] } },
{ "type": "Feature", "properties": { "name": "Ufficio logistica - Università degli Studi di Torino" }, "geometry": { "type": "Point", "coordinates": [ 7.6879582, 45.0697357 ] } },
{ "type": "Feature", "properties": { }, "geometry": { "type": "Point", "coordinates": [ 7.7170327, 45.0669965 ] } },
{ "type": "Feature", "properties": { }, "geometry": { "type": "Point", "coordinates": [ 7.6246498, 45.0399196 ] } },
{ "type": "Feature", "properties": { }, "geometry": { "type": "Point", "coordinates": [ 7.6229297, 45.0389523 ] } },
{ "type": "Feature", "properties": { "name": "Asilo La Cicogna" }, "geometry": { "type": "Point", "coordinates": [ 7.615686, 45.0756186 ] } },
{ "type": "Feature", "properties": { }, "geometry": { "type": "Point", "coordinates": [ 7.5313273, 45.0995139 ] } },
{ "type": "Feature", "properties": { }, "geometry": { "type": "Point", "coordinates": [ 7.5237859, 45.1018459 ] } },
{ "type": "Feature", "properties": { }, "geometry": { "type": "Point", "coordinates": [ 7.5237956, 45.1017925 ] } },
{ "type": "Feature", "properties": { }, "geometry": { "type": "Point", "coordinates": [ 7.5015264, 45.0661297 ] } },
{ "type": "Feature", "properties": { "name": "Istituto Comprensivo Carlo Casalegno" }, "geometry": { "type": "Point", "coordinates": [ 7.7158431, 45.1849533 ] } },
{ "type": "Feature", "properties": { }, "geometry": { "type": "Point", "coordinates": [ 7.5864909, 45.0665082 ] } },
{ "type": "Feature", "properties": { }, "geometry": { "type": "Point", "coordinates": [ 7.7170198, 45.0772108 ] } },
{ "type": "Feature", "properties": { }, "geometry": { "type": "Point", "coordinates": [ 7.6494927, 45.0804427 ] } },
{ "type": "Feature", "properties": { }, "geometry": { "type": "Point", "coordinates": [ 7.6497276, 45.0810968 ] } },
{ "type": "Feature", "properties": { }, "geometry": { "type": "Point", "coordinates": [ 7.6905311, 45.0788827 ] } },
{ "type": "Feature", "properties": { }, "geometry": { "type": "Point", "coordinates": [ 7.6701348, 45.0307195 ] } },
{ "type": "Feature", "properties": { }, "geometry": { "type": "Point", "coordinates": [ 7.6684705, 45.0254983 ] } },
{ "type": "Feature", "properties": { }, "geometry": { "type": "Point", "coordinates": [ 7.668933, 45.0266003 ] } },
{ "type": "Feature", "properties": { }, "geometry": { "type": "Point", "coordinates": [ 7.666715, 45.0269471 ] } },
{ "type": "Feature", "properties": { }, "geometry": { "type": "Point", "coordinates": [ 7.6414848, 45.04028 ] } },
{ "type": "Feature", "properties": { "name": "Scuola dell'Infanzia \"Helen Keller\"" }, "geometry": { "type": "Point", "coordinates": [ 7.6440961, 45.026697 ] } },
{ "type": "Feature", "properties": { "name": "Nido d'Infanzia \"Mafalda\"" }, "geometry": { "type": "Point", "coordinates": [ 7.6439713, 45.0267146 ] } },
{ "type": "Feature", "properties": { }, "geometry": { "type": "Point", "coordinates": [ 7.6512889, 45.0333527 ] } },
{ "type": "Feature", "properties": { }, "geometry": { "type": "Point", "coordinates": [ 7.6493339, 45.0336603 ] } },
{ "type": "Feature", "properties": { }, "geometry": { "type": "Point", "coordinates": [ 7.6535009, 45.0316372 ] } },
{ "type": "Feature", "properties": { }, "geometry": { "type": "Point", "coordinates": [ 7.654816, 45.0231693 ] } },
{ "type": "Feature", "properties": { }, "geometry": { "type": "Point", "coordinates": [ 7.6550205, 45.0222771 ] } },
{ "type": "Feature", "properties": { }, "geometry": { "type": "Point", "coordinates": [ 7.6984384, 45.1084694 ] } },
{ "type": "Feature", "properties": { "name": "S3+Lab" }, "geometry": { "type": "Point", "coordinates": [ 7.6863769, 45.0531377 ] } },
{ "type": "Feature", "properties": { "name": "ECDL GIS TEST CENTER" }, "geometry": { "type": "Point", "coordinates": [ 7.6863527, 45.0532475 ] } },
{ "type": "Feature", "properties": { "name": "Laboratorio di Analisi e Rappresentazioni Territoriali e Urbane" }, "geometry": { "type": "Point", "coordinates": [ 7.6865575, 45.0534347 ] } },
{ "type": "Feature", "properties": { "name": "Dipartimento Interateneo di Scienze, Progetto e Politiche del Territorio" }, "geometry": { "type": "Point", "coordinates": [ 7.6862746, 45.0539307 ] } },
{ "type": "Feature", "properties": { }, "geometry": { "type": "Point", "coordinates": [ 7.7108335, 45.0907698 ] } },
{ "type": "Feature", "properties": { }, "geometry": { "type": "Point", "coordinates": [ 7.7104462, 45.0912193 ] } },
{ "type": "Feature", "properties": { }, "geometry": { "type": "Point", "coordinates": [ 7.7097153, 45.0943446 ] } },
{ "type": "Feature", "properties": { }, "geometry": { "type": "Point", "coordinates": [ 7.7081973, 45.0944192 ] } },
{ "type": "Feature", "properties": { }, "geometry": { "type": "Point", "coordinates": [ 7.7094757, 45.0954463 ] } },
{ "type": "Feature", "properties": { }, "geometry": { "type": "Point", "coordinates": [ 7.6718955, 45.1012862 ] } },
{ "type": "Feature", "properties": { }, "geometry": { "type": "Point", "coordinates": [ 7.6173665, 45.0797344 ] } },
{ "type": "Feature", "properties": { }, "geometry": { "type": "Point", "coordinates": [ 7.6179386, 45.0777397 ] } },
{ "type": "Feature", "properties": { }, "geometry": { "type": "Point", "coordinates": [ 7.6447171, 45.0727758 ] } },
{ "type": "Feature", "properties": { }, "geometry": { "type": "Point", "coordinates": [ 7.654048, 45.0362175 ] } },
{ "type": "Feature", "properties": { }, "geometry": { "type": "Point", "coordinates": [ 7.7168965, 45.0670005 ] } },
{ "type": "Feature", "properties": { }, "geometry": { "type": "Point", "coordinates": [ 7.7085264, 45.0638149 ] } },
{ "type": "Feature", "properties": { }, "geometry": { "type": "Point", "coordinates": [ 7.7086264, 45.0638543 ] } },
{ "type": "Feature", "properties": { }, "geometry": { "type": "Point", "coordinates": [ 7.6609645, 45.0620917 ] } },
{ "type": "Feature", "properties": { }, "geometry": { "type": "Point", "coordinates": [ 7.6630394, 45.0641784 ] } },
{ "type": "Feature", "properties": { }, "geometry": { "type": "Point", "coordinates": [ 7.663229, 45.0641122 ] } },
{ "type": "Feature", "properties": { }, "geometry": { "type": "Point", "coordinates": [ 7.659496, 45.0610161 ] } },
{ "type": "Feature", "properties": { "name": "Liceo Classico Vittorio Alfieri" }, "geometry": { "type": "Point", "coordinates": [ 7.6776313, 45.046439 ] } },
{ "type": "Feature", "properties": { }, "geometry": { "type": "Point", "coordinates": [ 7.6852993, 45.0541402 ] } },
{ "type": "Feature", "properties": { }, "geometry": { "type": "Point", "coordinates": [ 7.6966192, 45.06648 ] } },
{ "type": "Feature", "properties": { }, "geometry": { "type": "Point", "coordinates": [ 7.6963621, 45.0668321 ] } },
{ "type": "Feature", "properties": { "name": "Sala di Studio Verdi" }, "geometry": { "type": "Point", "coordinates": [ 7.6954166, 45.0671868 ] } },
{ "type": "Feature", "properties": { }, "geometry": { "type": "Point", "coordinates": [ 7.6959585, 45.0668507 ] } },
{ "type": "Feature", "properties": { }, "geometry": { "type": "Point", "coordinates": [ 7.6882819, 45.0627349 ] } },
{ "type": "Feature", "properties": { }, "geometry": { "type": "Point", "coordinates": [ 7.6885803, 45.0625624 ] } },
{ "type": "Feature", "properties": { }, "geometry": { "type": "Point", "coordinates": [ 7.6886432, 45.0626478 ] } },
{ "type": "Feature", "properties": { }, "geometry": { "type": "Point", "coordinates": [ 7.6719449, 45.0741442 ] } },
{ "type": "Feature", "properties": { "name": "Scuola primaria statale Federico Sclopis" }, "geometry": { "type": "Point", "coordinates": [ 7.6719551, 45.0768693 ] } },
{ "type": "Feature", "properties": { }, "geometry": { "type": "Point", "coordinates": [ 7.6721266, 45.0746085 ] } },
{ "type": "Feature", "properties": { "name": "La Palestra del Cibo - Scuola di Cucina" }, "geometry": { "type": "Point", "coordinates": [ 7.6737995, 45.0797281 ] } },
{ "type": "Feature", "properties": { "name": "Scuola media statale Antonio Meucci" }, "geometry": { "type": "Point", "coordinates": [ 7.6700245, 45.0690878 ] } },
{ "type": "Feature", "properties": { }, "geometry": { "type": "Point", "coordinates": [ 7.6388003, 45.039545 ] } },
{ "type": "Feature", "properties": { }, "geometry": { "type": "Point", "coordinates": [ 7.629182, 45.0366375 ] } },
{ "type": "Feature", "properties": { }, "geometry": { "type": "Point", "coordinates": [ 7.6190861, 45.0358941 ] } },
{ "type": "Feature", "properties": { }, "geometry": { "type": "Point", "coordinates": [ 7.6192375, 45.0360746 ] } },
{ "type": "Feature", "properties": { }, "geometry": { "type": "Point", "coordinates": [ 7.6192698, 45.0361123 ] } },
{ "type": "Feature", "properties": { }, "geometry": { "type": "Point", "coordinates": [ 7.6194354, 45.0363108 ] } },
{ "type": "Feature", "properties": { }, "geometry": { "type": "Point", "coordinates": [ 7.6198262, 45.0364234 ] } },
{ "type": "Feature", "properties": { "name": "Asilo Nido Comunale G. Rossa" }, "geometry": { "type": "Point", "coordinates": [ 7.5492427, 45.0107241 ] } },
{ "type": "Feature", "properties": { "name": "Università degli studi di Torino - tecniche della prevenzione nell'ambiente e nei luoghi di lavoro" }, "geometry": { "type": "Point", "coordinates": [ 7.5784086, 45.0828202 ] } },
{ "type": "Feature", "properties": { "name": "Scuola materna Aporti Gastaldi" }, "geometry": { "type": "Point", "coordinates": [ 7.6678005, 45.0839358 ] } },
{ "type": "Feature", "properties": { }, "geometry": { "type": "Point", "coordinates": [ 7.588869, 45.0673848 ] } },
{ "type": "Feature", "properties": { "name": "il cucciolo" }, "geometry": { "type": "Point", "coordinates": [ 7.7133221, 45.0490662 ] } },
{ "type": "Feature", "properties": { }, "geometry": { "type": "Point", "coordinates": [ 7.7099735, 45.0945141 ] } },
{ "type": "Feature", "properties": { }, "geometry": { "type": "Point", "coordinates": [ 7.7115088, 45.0949615 ] } },
{ "type": "Feature", "properties": { }, "geometry": { "type": "Point", "coordinates": [ 7.7110435, 45.0945034 ] } },
{ "type": "Feature", "properties": { "name": "Scuola per l'Infanzia \"Mariele Ventre\"" }, "geometry": { "type": "Point", "coordinates": [ 7.6073734, 45.0227523 ] } },
{ "type": "Feature", "properties": { "name": "Scuola Secondaria \"Cristoforo Colombo\"" }, "geometry": { "type": "Point", "coordinates": [ 7.6146854, 45.0196431 ] } },
{ "type": "Feature", "properties": { "name": "International School of Turin" }, "geometry": { "type": "Point", "coordinates": [ 7.7906101, 45.0141771 ] } },
{ "type": "Feature", "properties": { "name": "Istituto d'Istruzione Superiore \"Valentino Bosso - Augusto Monti\"" }, "geometry": { "type": "Point", "coordinates": [ 7.6746033, 45.0697075 ] } },
{ "type": "Feature", "properties": { "name": "Università di Torino - Incubatore d'impresa" }, "geometry": { "type": "Point", "coordinates": [ 7.6167035, 45.0174282 ] } },
{ "type": "Feature", "properties": { "name": "Università di Torino - Scienze MFN e Farmacia" }, "geometry": { "type": "Point", "coordinates": [ 7.6157086, 45.0168243 ] } },
{ "type": "Feature", "properties": { }, "geometry": { "type": "Point", "coordinates": [ 7.6789257, 45.088002 ] } },
{ "type": "Feature", "properties": { }, "geometry": { "type": "Point", "coordinates": [ 7.6785036, 45.0877904 ] } },
{ "type": "Feature", "properties": { }, "geometry": { "type": "Point", "coordinates": [ 7.6779855, 45.0878017 ] } },
{ "type": "Feature", "properties": { }, "geometry": { "type": "Point", "coordinates": [ 7.5153596, 45.0785036 ] } },
{ "type": "Feature", "properties": { }, "geometry": { "type": "Point", "coordinates": [ 7.6574582, 45.112107 ] } },
{ "type": "Feature", "properties": { }, "geometry": { "type": "Point", "coordinates": [ 7.6617832, 45.1114181 ] } },
{ "type": "Feature", "properties": { "name": "Scuola dell'Infanzia Rosselli" }, "geometry": { "type": "Point", "coordinates": [ 7.5352827, 45.0743768 ] } },
{ "type": "Feature", "properties": { "name": "Scuola Primaria Freinet" }, "geometry": { "type": "Point", "coordinates": [ 7.53598, 45.0742101 ] } },
{ "type": "Feature", "properties": { }, "geometry": { "type": "Point", "coordinates": [ 7.5200637, 45.0629817 ] } },
{ "type": "Feature", "properties": { }, "geometry": { "type": "Point", "coordinates": [ 7.5405873, 45.0738315 ] } },
{ "type": "Feature", "properties": { "name": "Scuola dell'Infanzia \"Gianni Rodari\"" }, "geometry": { "type": "Point", "coordinates": [ 7.5514752, 45.0687357 ] } },
{ "type": "Feature", "properties": { }, "geometry": { "type": "Point", "coordinates": [ 7.541572, 45.0692706 ] } },
{ "type": "Feature", "properties": { "name": "Scuola dell'Infanzia Don Locanetto" }, "geometry": { "type": "Point", "coordinates": [ 7.5368679, 45.0521238 ] } },
{ "type": "Feature", "properties": { "name": "Scuola Primaria Don Locanetto" }, "geometry": { "type": "Point", "coordinates": [ 7.5369, 45.0522337 ] } },
{ "type": "Feature", "properties": { }, "geometry": { "type": "Point", "coordinates": [ 7.5051454, 45.0735699 ] } },
{ "type": "Feature", "properties": { }, "geometry": { "type": "Point", "coordinates": [ 7.5177844, 45.026605 ] } },
{ "type": "Feature", "properties": { }, "geometry": { "type": "Point", "coordinates": [ 7.5179565, 45.0274327 ] } },
{ "type": "Feature", "properties": { }, "geometry": { "type": "Point", "coordinates": [ 7.5063028, 45.0744264 ] } },
{ "type": "Feature", "properties": { }, "geometry": { "type": "Point", "coordinates": [ 7.7041342, 45.1504381 ] } },
{ "type": "Feature", "properties": { }, "geometry": { "type": "Point", "coordinates": [ 7.7045548, 45.1499888 ] } },
{ "type": "Feature", "properties": { "name": "Istituto di Istruzione Superiore C.I. Giulio" }, "geometry": { "type": "Point", "coordinates": [ 7.6775743, 45.0529937 ] } },
{ "type": "Feature", "properties": { }, "geometry": { "type": "Point", "coordinates": [ 7.7361048, 45.0190982 ] } },
{ "type": "Feature", "properties": { }, "geometry": { "type": "Point", "coordinates": [ 7.7369764, 45.0179122 ] } },
{ "type": "Feature", "properties": { }, "geometry": { "type": "Point", "coordinates": [ 7.503996, 45.0027946 ] } },
{ "type": "Feature", "properties": { }, "geometry": { "type": "Point", "coordinates": [ 7.5047762, 45.0028704 ] } },
{ "type": "Feature", "properties": { }, "geometry": { "type": "Point", "coordinates": [ 7.5044841, 45.0028308 ] } },
{ "type": "Feature", "properties": { "name": "Dipartimento di Architettura e Design (DAD)" }, "geometry": { "type": "Point", "coordinates": [ 7.6866283, 45.0543756 ] } },
{ "type": "Feature", "properties": { }, "geometry": { "type": "Point", "coordinates": [ 7.5136883, 44.9975204 ] } },
{ "type": "Feature", "properties": { }, "geometry": { "type": "Point", "coordinates": [ 7.5138587, 44.9977031 ] } },
{ "type": "Feature", "properties": { }, "geometry": { "type": "Point", "coordinates": [ 7.7096277, 45.0956221 ] } },
{ "type": "Feature", "properties": { "name": "Scuola internazionale Spinelli" }, "geometry": { "type": "Point", "coordinates": [ 7.7262925, 45.070982 ] } },
{ "type": "Feature", "properties": { }, "geometry": { "type": "Point", "coordinates": [ 7.7729476, 45.1392996 ] } },
{ "type": "Feature", "properties": { }, "geometry": { "type": "Point", "coordinates": [ 7.7561632, 45.0117755 ] } },
{ "type": "Feature", "properties": { "name": "Infopoint Unito" }, "geometry": { "type": "Point", "coordinates": [ 7.6904749, 45.0681729 ] } },
{ "type": "Feature", "properties": { "name": "Residenza Universitaria EDISU Stemmi" }, "geometry": { "type": "Point", "coordinates": [ 7.6916466, 45.0675478 ] } },
{ "type": "Feature", "properties": { }, "geometry": { "type": "Point", "coordinates": [ 7.6430079, 45.0011552 ] } },
{ "type": "Feature", "properties": { "name": "DIST - Classe Giovanni Astengo" }, "geometry": { "type": "Point", "coordinates": [ 7.6853813, 45.0536839 ] } },
{ "type": "Feature", "properties": { "name": "Segreteria Studenti" }, "geometry": { "type": "Point", "coordinates": [ 7.6857546, 45.0538745 ] } },
{ "type": "Feature", "properties": { "name": "Politecnico di Torino - Castello del Valentino" }, "geometry": { "type": "Point", "coordinates": [ 7.685346, 45.0542201 ] } },
{ "type": "Feature", "properties": { "name": "Sala Studio Valentino" }, "geometry": { "type": "Point", "coordinates": [ 7.6851449, 45.0535648 ] } },
{ "type": "Feature", "properties": { "name": "Sala Carlo Mollino" }, "geometry": { "type": "Point", "coordinates": [ 7.6859033, 45.0538418 ] } },
{ "type": "Feature", "properties": { }, "geometry": { "type": "Point", "coordinates": [ 7.6568822, 45.0651803 ] } },
{ "type": "Feature", "properties": { }, "geometry": { "type": "Point", "coordinates": [ 7.6719319, 45.1012842 ] } },
{ "type": "Feature", "properties": { }, "geometry": { "type": "Point", "coordinates": [ 7.6722462, 45.1009869 ] } },
{ "type": "Feature", "properties": { }, "geometry": { "type": "Point", "coordinates": [ 7.6715776, 45.10069 ] } },
{ "type": "Feature", "properties": { }, "geometry": { "type": "Point", "coordinates": [ 7.7214045, 45.0722818 ] } },
{ "type": "Feature", "properties": { }, "geometry": { "type": "Point", "coordinates": [ 7.7216894, 45.0714254 ] } },
{ "type": "Feature", "properties": { "name": "Scuola dell'infanzia Statale \"Giancarlo Perempruner\"" }, "geometry": { "type": "Point", "coordinates": [ 7.6938002, 45.0848748 ] } },
{ "type": "Feature", "properties": { }, "geometry": { "type": "Point", "coordinates": [ 7.6284881, 45.0574679 ] } },
{ "type": "Feature", "properties": { }, "geometry": { "type": "Point", "coordinates": [ 7.6282629, 45.0577984 ] } },
{ "type": "Feature", "properties": { }, "geometry": { "type": "Point", "coordinates": [ 7.6282012, 45.0578484 ] } },
{ "type": "Feature", "properties": { }, "geometry": { "type": "Point", "coordinates": [ 7.638675, 45.1748323 ] } },
{ "type": "Feature", "properties": { }, "geometry": { "type": "Point", "coordinates": [ 7.639741, 45.1754071 ] } },
{ "type": "Feature", "properties": { }, "geometry": { "type": "Point", "coordinates": [ 7.6496847, 45.1759039 ] } },
{ "type": "Feature", "properties": { }, "geometry": { "type": "Point", "coordinates": [ 7.6463371, 45.1767787 ] } },
{ "type": "Feature", "properties": { }, "geometry": { "type": "Point", "coordinates": [ 7.6464166, 45.1769265 ] } },
{ "type": "Feature", "properties": { "name": "Scuola materna statale" }, "geometry": { "type": "Point", "coordinates": [ 7.6572508, 45.0997957 ] } },
{ "type": "Feature", "properties": { "name": "Istituto per il commercio succursale Boselli" }, "geometry": { "type": "Point", "coordinates": [ 7.6573916, 45.0990304 ] } },
{ "type": "Feature", "properties": { "name": "Scuola materna comunale" }, "geometry": { "type": "Point", "coordinates": [ 7.6492229, 45.1021571 ] } },
{ "type": "Feature", "properties": { "name": "Scuola materna comunale" }, "geometry": { "type": "Point", "coordinates": [ 7.6554832, 45.105047 ] } },
{ "type": "Feature", "properties": { "name": "Scuola materna statale" }, "geometry": { "type": "Point", "coordinates": [ 7.6396447, 45.0981093 ] } },
{ "type": "Feature", "properties": { "name": "stituto Alberghiero succursale J.B. Beccari" }, "geometry": { "type": "Point", "coordinates": [ 7.639001, 45.0987189 ] } },
{ "type": "Feature", "properties": { "name": "Istituto per il commercio succursale Boselli" }, "geometry": { "type": "Point", "coordinates": [ 7.6472716, 45.1042737 ] } },
{ "type": "Feature", "properties": { "name": "Accademia dello spettacolo" }, "geometry": { "type": "Point", "coordinates": [ 7.6781069, 45.0954367 ] } },
{ "type": "Feature", "properties": { "name": "Fattoria Sociale Paideia" }, "geometry": { "type": "Point", "coordinates": [ 7.8099511, 45.0602554 ] } },
{ "type": "Feature", "properties": { }, "geometry": { "type": "Point", "coordinates": [ 7.6918261, 45.070306 ] } },
{ "type": "Feature", "properties": { }, "geometry": { "type": "Point", "coordinates": [ 7.6432718, 45.0517659 ] } },
{ "type": "Feature", "properties": { "name": "Liceo scientifico Galileo Ferraris" }, "geometry": { "type": "Point", "coordinates": [ 7.6622584, 45.0639701 ] } },
{ "type": "Feature", "properties": { "name": "Istituto tecnico commerciale Germano Sommeiller" }, "geometry": { "type": "Point", "coordinates": [ 7.6630788, 45.0637221 ] } },
{ "type": "Feature", "properties": { "name": "Lycée Francais International Jean Giono" }, "geometry": { "type": "Point", "coordinates": [ 7.7311551, 45.0806585 ] } },
{ "type": "Feature", "properties": { }, "geometry": { "type": "Point", "coordinates": [ 7.687009, 45.0540381 ] } },
{ "type": "Feature", "properties": { }, "geometry": { "type": "Point", "coordinates": [ 7.6869393, 45.0539264 ] } },
{ "type": "Feature", "properties": { "name": "Susanna Viale" }, "geometry": { "type": "Point", "coordinates": [ 7.7734498, 45.0440978 ] } },
{ "type": "Feature", "properties": { "name": "L'isola che non c'è" }, "geometry": { "type": "Point", "coordinates": [ 7.7764719, 45.0447742 ] } },
{ "type": "Feature", "properties": { }, "geometry": { "type": "Point", "coordinates": [ 7.7708498, 45.0435267 ] } },
{ "type": "Feature", "properties": { "name": "Liceo Scientifico Statale Gino Segrè" }, "geometry": { "type": "Point", "coordinates": [ 7.7069381, 45.0593472 ] } },
{ "type": "Feature", "properties": { "name": "Scuola materna \"Buon Consiglio\"" }, "geometry": { "type": "Point", "coordinates": [ 7.6966885, 45.0576018 ] } },
{ "type": "Feature", "properties": { }, "geometry": { "type": "Point", "coordinates": [ 7.6367691, 45.0008526 ] } },
{ "type": "Feature", "properties": { }, "geometry": { "type": "Point", "coordinates": [ 7.7704382, 45.045258 ] } },
{ "type": "Feature", "properties": { }, "geometry": { "type": "Point", "coordinates": [ 7.7720739, 45.0433077 ] } },
{ "type": "Feature", "properties": { }, "geometry": { "type": "Point", "coordinates": [ 7.772095, 45.0436522 ] } },
{ "type": "Feature", "properties": { }, "geometry": { "type": "Point", "coordinates": [ 7.7718276, 45.0436408 ] } },
{ "type": "Feature", "properties": { }, "geometry": { "type": "Point", "coordinates": [ 7.7717879, 45.0431915 ] } },
{ "type": "Feature", "properties": { "name": "Turin Flying Institute S.r.l." }, "geometry": { "type": "Point", "coordinates": [ 7.6412522, 45.1970928 ] } },
{ "type": "Feature", "properties": { }, "geometry": { "type": "Point", "coordinates": [ 7.6559144, 45.0919811 ] } },
{ "type": "Feature", "properties": { }, "geometry": { "type": "Point", "coordinates": [ 7.6558679, 45.0924167 ] } },
{ "type": "Feature", "properties": { }, "geometry": { "type": "Point", "coordinates": [ 7.7136653, 45.0911701 ] } },
{ "type": "Feature", "properties": { }, "geometry": { "type": "Point", "coordinates": [ 7.7139786, 45.090515 ] } },
{ "type": "Feature", "properties": { }, "geometry": { "type": "Point", "coordinates": [ 7.6428696, 45.0803643 ] } },
{ "type": "Feature", "properties": { }, "geometry": { "type": "Point", "coordinates": [ 7.6329071, 45.0793949 ] } },
{ "type": "Feature", "properties": { }, "geometry": { "type": "Point", "coordinates": [ 7.6339042, 45.0795413 ] } },
{ "type": "Feature", "properties": { }, "geometry": { "type": "Point", "coordinates": [ 7.6339579, 45.0798509 ] } },
{ "type": "Feature", "properties": { }, "geometry": { "type": "Point", "coordinates": [ 7.634879, 45.0794419 ] } },
{ "type": "Feature", "properties": { }, "geometry": { "type": "Point", "coordinates": [ 7.6352102, 45.0794303 ] } },
{ "type": "Feature", "properties": { }, "geometry": { "type": "Point", "coordinates": [ 7.6342223, 45.0804298 ] } },
{ "type": "Feature", "properties": { }, "geometry": { "type": "Point", "coordinates": [ 7.6351045, 45.0800002 ] } },
{ "type": "Feature", "properties": { }, "geometry": { "type": "Point", "coordinates": [ 7.6351961, 45.0803625 ] } },
{ "type": "Feature", "properties": { }, "geometry": { "type": "Point", "coordinates": [ 7.638537, 45.0833674 ] } },
{ "type": "Feature", "properties": { }, "geometry": { "type": "Point", "coordinates": [ 7.6382935, 45.0833752 ] } },
{ "type": "Feature", "properties": { }, "geometry": { "type": "Point", "coordinates": [ 7.6385661, 45.0825558 ] } },
{ "type": "Feature", "properties": { }, "geometry": { "type": "Point", "coordinates": [ 7.6387817, 45.0830372 ] } },
{ "type": "Feature", "properties": { }, "geometry": { "type": "Point", "coordinates": [ 7.5129096, 45.0700587 ] } },
{ "type": "Feature", "properties": { }, "geometry": { "type": "Point", "coordinates": [ 7.5128925, 45.0699232 ] } },
{ "type": "Feature", "properties": { }, "geometry": { "type": "Point", "coordinates": [ 7.5127635, 45.0693158 ] } },
{ "type": "Feature", "properties": { }, "geometry": { "type": "Point", "coordinates": [ 7.6419687, 45.0834329 ] } },
{ "type": "Feature", "properties": { }, "geometry": { "type": "Point", "coordinates": [ 7.6422877, 45.0834235 ] } },
{ "type": "Feature", "properties": { }, "geometry": { "type": "Point", "coordinates": [ 7.6427258, 45.0836954 ] } },
{ "type": "Feature", "properties": { }, "geometry": { "type": "Point", "coordinates": [ 7.6278091, 45.0781913 ] } },
{ "type": "Feature", "properties": { }, "geometry": { "type": "Point", "coordinates": [ 7.6269088, 45.078702 ] } },
{ "type": "Feature", "properties": { }, "geometry": { "type": "Point", "coordinates": [ 7.6267889, 45.0785061 ] } },
{ "type": "Feature", "properties": { }, "geometry": { "type": "Point", "coordinates": [ 7.6268489, 45.078604 ] } },
{ "type": "Feature", "properties": { "name": "Saint Denise scuola paritaria" }, "geometry": { "type": "Point", "coordinates": [ 7.7180833, 45.0626963 ] } },
{ "type": "Feature", "properties": { }, "geometry": { "type": "Point", "coordinates": [ 7.6428776, 45.0800763 ] } },
{ "type": "Feature", "properties": { "name": "Scuola Elementare di Stato \"Salavador Allende\"" }, "geometry": { "type": "Point", "coordinates": [ 7.7518778, 45.0944332 ] } },
{ "type": "Feature", "properties": { }, "geometry": { "type": "Point", "coordinates": [ 7.6261513, 45.0787164 ] } },
{ "type": "Feature", "properties": { }, "geometry": { "type": "Point", "coordinates": [ 7.6252155, 45.0789428 ] } },
{ "type": "Feature", "properties": { }, "geometry": { "type": "Point", "coordinates": [ 7.6251929, 45.0789942 ] } },
{ "type": "Feature", "properties": { }, "geometry": { "type": "Point", "coordinates": [ 7.6244772, 45.0791069 ] } },
{ "type": "Feature", "properties": { }, "geometry": { "type": "Point", "coordinates": [ 7.6241493, 45.0786039 ] } },
{ "type": "Feature", "properties": { }, "geometry": { "type": "Point", "coordinates": [ 7.6245605, 45.0782717 ] } },
{ "type": "Feature", "properties": { }, "geometry": { "type": "Point", "coordinates": [ 7.6253934, 45.0782531 ] } },
{ "type": "Feature", "properties": { "name": "Baby Club Sette Nani" }, "geometry": { "type": "Point", "coordinates": [ 7.7124158, 45.1813307 ] } },
{ "type": "Feature", "properties": { }, "geometry": { "type": "Point", "coordinates": [ 7.5228347, 45.0664956 ] } },
{ "type": "Feature", "properties": { }, "geometry": { "type": "Point", "coordinates": [ 7.5234645, 45.0656717 ] } },
{ "type": "Feature", "properties": { }, "geometry": { "type": "Point", "coordinates": [ 7.6223445, 45.0827513 ] } },
{ "type": "Feature", "properties": { }, "geometry": { "type": "Point", "coordinates": [ 7.6226489, 45.0827269 ] } },
{ "type": "Feature", "properties": { }, "geometry": { "type": "Point", "coordinates": [ 7.6219369, 45.0827854 ] } },
{ "type": "Feature", "properties": { }, "geometry": { "type": "Point", "coordinates": [ 7.6184468, 45.083051 ] } },
{ "type": "Feature", "properties": { }, "geometry": { "type": "Point", "coordinates": [ 7.6176797, 45.0830753 ] } },
{ "type": "Feature", "properties": { }, "geometry": { "type": "Point", "coordinates": [ 7.6179854, 45.0830654 ] } },
{ "type": "Feature", "properties": { }, "geometry": { "type": "Point", "coordinates": [ 7.6181342, 45.0830606 ] } },
{ "type": "Feature", "properties": { }, "geometry": { "type": "Point", "coordinates": [ 7.6174019, 45.0830843 ] } },
{ "type": "Feature", "properties": { }, "geometry": { "type": "Point", "coordinates": [ 7.618011, 45.0824208 ] } },
{ "type": "Feature", "properties": { }, "geometry": { "type": "Point", "coordinates": [ 7.6189641, 45.0829752 ] } },
{ "type": "Feature", "properties": { }, "geometry": { "type": "Point", "coordinates": [ 7.6189372, 45.0826249 ] } },
{ "type": "Feature", "properties": { "name": "Asilo nido comunale \"Arcobaleno\"" }, "geometry": { "type": "Point", "coordinates": [ 7.720858, 45.1809753 ] } },
{ "type": "Feature", "properties": { "name": "Gli Amici di Winnie" }, "geometry": { "type": "Point", "coordinates": [ 7.7189778, 45.1800177 ] } },
{ "type": "Feature", "properties": { }, "geometry": { "type": "Point", "coordinates": [ 7.617632, 45.0774463 ] } },
{ "type": "Feature", "properties": { }, "geometry": { "type": "Point", "coordinates": [ 7.6166771, 45.0774687 ] } },
{ "type": "Feature", "properties": { }, "geometry": { "type": "Point", "coordinates": [ 7.6171518, 45.0775973 ] } },
{ "type": "Feature", "properties": { }, "geometry": { "type": "Point", "coordinates": [ 7.6116124, 45.0744422 ] } },
{ "type": "Feature", "properties": { "name": "Aule Torino Esposizioni" }, "geometry": { "type": "Point", "coordinates": [ 7.6817014, 45.0494177 ] } },
{ "type": "Feature", "properties": { }, "geometry": { "type": "Point", "coordinates": [ 7.6546926, 45.0771999 ] } },
{ "type": "Feature", "properties": { }, "geometry": { "type": "Point", "coordinates": [ 7.6540868, 45.0771969 ] } },
{ "type": "Feature", "properties": { }, "geometry": { "type": "Point", "coordinates": [ 7.6544497, 45.0768172 ] } },
{ "type": "Feature", "properties": { }, "geometry": { "type": "Point", "coordinates": [ 7.6538819, 45.0872416 ] } },
{ "type": "Feature", "properties": { }, "geometry": { "type": "Point", "coordinates": [ 7.6540174, 45.0873861 ] } },
{ "type": "Feature", "properties": { "name": "IED Istituto Europeo di Design" }, "geometry": { "type": "Point", "coordinates": [ 7.6688061, 45.0674717 ] } },
{ "type": "Feature", "properties": { }, "geometry": { "type": "Point", "coordinates": [ 7.6439302, 45.1953533 ] } },
{ "type": "Feature", "properties": { }, "geometry": { "type": "Point", "coordinates": [ 7.6439616, 45.195188 ] } },
{ "type": "Feature", "properties": { }, "geometry": { "type": "Point", "coordinates": [ 7.604658, 45.0753982 ] } },
{ "type": "Feature", "properties": { }, "geometry": { "type": "Point", "coordinates": [ 7.6624155, 45.0130168 ] } },
{ "type": "Feature", "properties": { }, "geometry": { "type": "Point", "coordinates": [ 7.6547738, 45.023094 ] } },
{ "type": "Feature", "properties": { "name": "SDG11Lab" }, "geometry": { "type": "Point", "coordinates": [ 7.686476, 45.0533885 ] } },
{ "type": "Feature", "properties": { "name": "Micro Nido delle Gemelle" }, "geometry": { "type": "Point", "coordinates": [ 7.616907, 45.0687225 ] } },
{ "type": "Feature", "properties": { }, "geometry": { "type": "Point", "coordinates": [ 7.6348532, 45.0661892 ] } },
{ "type": "Feature", "properties": { }, "geometry": { "type": "Point", "coordinates": [ 7.7560352, 45.0113869 ] } },
{ "type": "Feature", "properties": { "name": "Istituto Plana" }, "geometry": { "type": "Point", "coordinates": [ 7.691962, 45.0639637 ] } },
{ "type": "Feature", "properties": { "name": "SIOI - Sezione Piemonte e Valle d'Aosta" }, "geometry": { "type": "Point", "coordinates": [ 7.6720413, 45.0251095 ] } },
{ "type": "Feature", "properties": { }, "geometry": { "type": "Point", "coordinates": [ 7.7552755, 45.0121008 ] } },
{ "type": "Feature", "properties": { }, "geometry": { "type": "Point", "coordinates": [ 7.7561838, 45.0123566 ] } },
{ "type": "Feature", "properties": { }, "geometry": { "type": "Point", "coordinates": [ 7.7122653, 45.0677662 ] } },
{ "type": "Feature", "properties": { }, "geometry": { "type": "Point", "coordinates": [ 7.7111779, 45.0672588 ] } },
{ "type": "Feature", "properties": { }, "geometry": { "type": "Point", "coordinates": [ 7.5485945, 45.1017121 ] } },
{ "type": "Feature", "properties": { }, "geometry": { "type": "Point", "coordinates": [ 7.5482878, 45.1016158 ] } },
{ "type": "Feature", "properties": { }, "geometry": { "type": "Point", "coordinates": [ 7.8105046, 44.9988312 ] } },
{ "type": "Feature", "properties": { }, "geometry": { "type": "Point", "coordinates": [ 7.80972, 44.9982545 ] } },
{ "type": "Feature", "properties": { "name": "Facoltà di Architettura" }, "geometry": { "type": "Point", "coordinates": [ 7.6854019, 45.0542317 ] } },
{ "type": "Feature", "properties": { "name": "Scuola media \"Viotti\" succursale" }, "geometry": { "type": "Point", "coordinates": [ 7.6954955, 45.0905682 ] } },
{ "type": "Feature", "properties": { "name": "Dental School" }, "geometry": { "type": "Point", "coordinates": [ 7.666615, 45.0345928 ] } },
{ "type": "Feature", "properties": { }, "geometry": { "type": "Point", "coordinates": [ 7.8153441, 45.0152116 ] } },
{ "type": "Feature", "properties": { "name": "Scuola di studi superiori Ferdinando Rossi" }, "geometry": { "type": "Point", "coordinates": [ 7.6973136, 45.0710174 ] } },
{ "type": "Feature", "properties": { }, "geometry": { "type": "Point", "coordinates": [ 7.6617606, 45.0143213 ] } },
{ "type": "Feature", "properties": { }, "geometry": { "type": "Point", "coordinates": [ 7.6621939, 45.0139142 ] } },
{ "type": "Feature", "properties": { }, "geometry": { "type": "Point", "coordinates": [ 7.6620913, 45.0135613 ] } },
{ "type": "Feature", "properties": { "name": "Università degli studi di Torino - Dipartimento di Psichologia" }, "geometry": { "type": "Point", "coordinates": [ 7.6898971, 45.0691151 ] } },
{ "type": "Feature", "properties": { }, "geometry": { "type": "Point", "coordinates": [ 7.54395, 45.1058393 ] } },
{ "type": "Feature", "properties": { }, "geometry": { "type": "Point", "coordinates": [ 7.5728939, 45.1974931 ] } },
{ "type": "Feature", "properties": { }, "geometry": { "type": "Point", "coordinates": [ 7.5730953, 45.1962579 ] } },
{ "type": "Feature", "properties": { }, "geometry": { "type": "Point", "coordinates": [ 7.5687007, 45.1961178 ] } },
{ "type": "Feature", "properties": { "name": "Il Melograno" }, "geometry": { "type": "Point", "coordinates": [ 7.6810038, 45.0752432 ] } },
{ "type": "Feature", "properties": { }, "geometry": { "type": "Point", "coordinates": [ 7.6448902, 45.073097 ] } },
{ "type": "Feature", "properties": { }, "geometry": { "type": "Point", "coordinates": [ 7.6452287, 45.0734813 ] } },
{ "type": "Feature", "properties": { }, "geometry": { "type": "Point", "coordinates": [ 7.6447699, 45.073531 ] } },
{ "type": "Feature", "properties": { }, "geometry": { "type": "Point", "coordinates": [ 7.6449575, 45.0730789 ] } },
{ "type": "Feature", "properties": { }, "geometry": { "type": "Point", "coordinates": [ 7.6449456, 45.0730789 ] } },
{ "type": "Feature", "properties": { }, "geometry": { "type": "Point", "coordinates": [ 7.6163672, 45.0670972 ] } },
{ "type": "Feature", "properties": { }, "geometry": { "type": "Point", "coordinates": [ 7.6170313, 45.0672733 ] } },
{ "type": "Feature", "properties": { }, "geometry": { "type": "Point", "coordinates": [ 7.6170287, 45.0673415 ] } },
{ "type": "Feature", "properties": { }, "geometry": { "type": "Point", "coordinates": [ 7.698969, 45.0703186 ] } },
{ "type": "Feature", "properties": { }, "geometry": { "type": "Point", "coordinates": [ 7.6886714, 45.0630258 ] } },
{ "type": "Feature", "properties": { "name": "S.S.O.I. - Scuola Superiore di Osteopatia Italiana" }, "geometry": { "type": "Point", "coordinates": [ 7.6555623, 45.0766897 ] } },
{ "type": "Feature", "properties": { "name": "Babylab" }, "geometry": { "type": "Point", "coordinates": [ 7.6728513, 45.075966 ] } },
{ "type": "Feature", "properties": { "name": "Suore Carmelitane S. Teresa - Scuola Materna Ferrero" }, "geometry": { "type": "Point", "coordinates": [ 7.7023291, 45.072608 ] } },
{ "type": "Feature", "properties": { "name": "Conservatorio musicale" }, "geometry": { "type": "Point", "coordinates": [ 7.6852274, 45.0628922 ] } },
{ "type": "Feature", "properties": { }, "geometry": { "type": "Point", "coordinates": [ 7.5405464, 45.0086002 ] } },
{ "type": "Feature", "properties": { }, "geometry": { "type": "Point", "coordinates": [ 7.7598076, 45.1405665 ] } },
{ "type": "Feature", "properties": { }, "geometry": { "type": "Point", "coordinates": [ 7.7578064, 45.1351724 ] } },
{ "type": "Feature", "properties": { }, "geometry": { "type": "Point", "coordinates": [ 7.7599575, 45.14005 ] } },
{ "type": "Feature", "properties": { "name": "Aula 29B" }, "geometry": { "type": "Point", "coordinates": [ 7.6598774, 45.0628498 ] } },
{ "type": "Feature", "properties": { "name": "hoppi loppa" }, "geometry": { "type": "Point", "coordinates": [ 7.7034271, 45.0680389 ] } },
{ "type": "Feature", "properties": { }, "geometry": { "type": "Point", "coordinates": [ 7.5416916, 45.0084125 ] } },
{ "type": "Feature", "properties": { "name": "I. C. Cairoli" }, "geometry": { "type": "Point", "coordinates": [ 7.6560409, 45.0165202 ] } },
{ "type": "Feature", "properties": { "name": "Collegio Sacra Famiglia" }, "geometry": { "type": "Point", "coordinates": [ 7.6482669, 45.077564 ] } },
{ "type": "Feature", "properties": { }, "geometry": { "type": "Point", "coordinates": [ 7.6765896, 45.0851876 ] } },
{ "type": "Feature", "properties": { }, "geometry": { "type": "Point", "coordinates": [ 7.5162116, 45.070555 ] } },
{ "type": "Feature", "properties": { }, "geometry": { "type": "Point", "coordinates": [ 7.6863184, 45.0637053 ] } }
]
}
